IRIDIUM 7               
1 24793U 97020B   24215.58985356  .00000750  00000+0  25500-3 0  9992
2 24793  86.3980 310.4007 0002455  94.3444 265.8033 14.35321020426189
IRIDIUM 5               
1 24795U 97020D   24215.61202764  .00004860  00000+0  45625-3 0  9999
2 24795  86.3896 229.8685 0119998 196.1154 163.6243 14.88345678438007
IRIDIUM 4               
1 24796U 97020E   24215.49710174  .00000780  00000+0  26049-3 0  9991
2 24796  86.3973 307.5269 0002285  97.7038 262.4419 14.36249512426714
IRIDIUM 914             
1 24836U 97030A   24215.54247794  .00000932  00000+0  28910-3 0  9994
2 24836  86.3965 317.0554 0002636 136.2133 223.9275 14.40122022423358
IRIDIUM 16              
1 24841U 97030F   24215.58636484  .00000929  00000+0  30080-3 0  9999
2 24841  86.4073 339.1302 0003703  62.6828 297.4747 14.38009099421207
IRIDIUM 911             
1 24842U 97030G   24215.37426669  .00001244  00000+0  33838-3 0  9994
2 24842  86.4497 338.3048 0016420  82.4687 277.8381 14.46682667428973
IRIDIUM 17              
1 24870U 97034B   24215.51515909  .00000952  00000+0  31423-3 0  9994
2 24870  86.3979   8.7295 0002060  46.2820 313.8547 14.37098184417802
IRIDIUM 920             
1 24871U 97034C   24215.61274955  .00000964  00000+0  29487-3 0  9999
2 24871  86.4011 348.6676 0013302  59.1748 301.0758 14.40818355420691
